{"fetched_at": "2026-06-03T15:49:54.954399+00:00", "line1": "1 62485U 25002A   26153.23742127 -.00000341  00000+0  00000+0 0  9996", "line2": "2 62485   5.0782  61.2593 0051721 171.2516 230.8793  1.00261537  5219"}
{"fetched_at": "2026-06-04T17:16:33.420697+00:00", "line1": "1 62485U 25002A   26154.73046222 -.00000339  00000+0  00000+0 0  9992", "line2": "2 62485   5.0812  61.2456 0051546 172.8146  48.3391  1.00281646  5222"}
